QIANFAN-1               
1 60379U 24140A   25348.91457039  .00000095  00000+0  12833-3 0  9999
2 60379  88.9761 299.0549 0016230 203.7248 156.3156 13.50978418 67648
QIANFAN-2               
1 60380U 24140B   25348.94355957  .00000106  00000+0  14564-3 0  9996
2 60380  88.9747 298.8909 0012403 172.1971 187.9375 13.50982111 67706
QIANFAN-3               
1 60381U 24140C   25348.87765857  .00000098  00000+0  13337-3 0  9990
2 60381  88.9740 299.0302 0013090 186.2211 173.8780 13.50982636 67601
QIANFAN-4               
1 60382U 24140D   25348.92690801  .00000077  00000+0  10086-3 0  9998
2 60382  88.9765 298.9233 0012542 175.1428 184.9847 13.50978349 67735
QIANFAN-5               
1 60383U 24140E   25348.90234990  .00000103  00000+0  14113-3 0  9995
2 60383  88.9739 299.0531 0014024 198.7596 161.3040 13.50980303 67595
QIANFAN-6               
1 60384U 24140F   25348.92294252  .00000102  00000+0  13974-3 0  9998
2 60384  88.9767 298.7977 0012470 181.3440 178.7680 13.50980702 67793
QIANFAN-7               
1 60385U 24140G   25348.91747356  .00000741  00000+0  29454-3 0  9995
2 60385  88.9781 293.4651 0016805  39.3398 320.9014 14.27652190 70700
QIANFAN-8               
1 60386U 24140H   25348.93120629  .00000100  00000+0  13687-3 0  9996
2 60386  88.9768 299.0344 0015834 185.4279 174.6703 13.50978594 67641
